00724   13.2   0.15 K118R 332.72314  205.43079  204.29664   11.71037  0.2500761  0.25618847   2.4552534  0 MPO120681   429  18 1911-2007 0.56 M-v 38h MPCW       0000    (724) Hapag              20070519
00725   11.81  0.15 K118R  71.27189  322.61351   68.82256    3.78727  0.2200669  0.23889142   2.5723833  0 MPO135422   855  28 1915-2008 0.56 M-v 38h MPCW       0000    (725) Amanda             20080309
00726   10.57  0.15 K118R 132.65353  112.37725  242.30978   15.40943  0.2850581  0.23987155   2.5653713  0 MPC 32506   104  21 1919-1997 0.54 M-v 38h Goffin     0000    (726) Joella             19971005
00727    9.6   0.15 K118R 139.68082  274.76551  133.10371   15.05805  0.1043194  0.23956908   2.5675301  0 MPO190130   812  30 1908-2010 0.51 M-v 38h MPCLINUX   0000    (727) Nipponia           20101110
00728   12.8   0.15 K118R 153.09387   55.45194   82.67569    4.25665  0.0884365  0.29141290   2.2531851  0 MPO166027   888  21 1912-2009 0.58 M-v 38h MPCALI     0000    (728) Leonisis           20091121
00729    9.31  0.15 K118R 196.80168   87.63365  124.46261   18.02903  0.0951466  0.21466949   2.7624166  0 MPO150774   756  25 1917-2008 0.54 M-v 38h MPCW       0000    (729) Watsonia           20080514
00730   14.0   0.15 K118R 193.98191  123.41584   95.11554    4.23350  0.1768757  0.29306484   2.2447100  0 MPO 70179   289  13 1912-2004 0.53 M-v 38h Goffin     0000    (730) Athanasia          20040827
00731    9.62  0.15 K118R 312.43245  286.87231   46.53682   10.70753  0.1360541  0.19069676   2.9893298  0 MPO 41498   331  35 1912-2002 0.56 M-v 38h Goffin     0000    (731) Sorga              20021114
00732   10.7   0.15 K118R 260.26167   65.17619  173.39668   10.98955  0.0444818  0.25609456   2.4558536  1 MPC 38009   143  27 1913-2000 0.88 M-v 38h Williams   0000    (732) Tjilaki            20000108
00733    9.05  0.15 K118R 131.43478  193.81160  341.14569   20.26586  0.0623813  0.15754180   3.3952534  0 MPO128610   671  28 1909-2007 0.60 M-v 38h MPCW       0000    (733) Mocia              20071102
00734    9.8   0.15 K118R 205.65259   67.66997    3.30083    5.79839  0.0963477  0.17641275   3.1485896  0 MPO190130  1086  35 1920-2010 0.53 M-v 38h MPCAPO     0000    (734) Benda              20100629
00735    9.55  0.15 K118R   6.08432  310.29803   42.98877   16.88785  0.3226693  0.21867348   2.7285922  0 MPO152280   772  26 1921-2008 0.58 M-v 38h MPCALB     0000    (735) Marghanna          20081222
00736   11.64  0.15 K118R 143.78803  200.29553  135.96012    4.37457  0.1654392  0.30172820   2.2015343  0 MPO 70179   579  35 1912-2003 0.54 M-v 38h Goffin     0000    (736) Harvard            20031218
00737    8.81  0.15 K118R 319.97316  133.83704  184.92568   12.35644  0.2418716  0.23617216   2.5920911  0 MPO198779  1039  44 1915-2011 0.62 M-v 38h MPCLINUX   0000    (737) Arequipa           20110413
00738   10.13  0.15 K118R 172.33232   40.82337  132.35981    3.52864  0.0600437  0.18652942   3.0336897  0 MPO200107  1199  45 1913-2011 0.56 M-v 38h MPCLINUX   0000    (738) Alagasta           20110514
00739    8.50  0.15 K118R 245.57164   44.99940  136.65572   20.65384  0.1423498  0.21741256   2.7391320  0 MPO135422   736  34 1918-2008 0.56 M-v 38h MPCW       0000    (739) Mandeville         20080305
00740    9.1   0.15 K118R 160.27121   48.67572  116.19612   10.83681  0.1140313  0.18524608   3.0476846  0 MPO190130   875  38 1913-2010 0.56 M-v 38h MPCLINUX   0000    (740) Cantabia           20100811
00741   10.4   0.15 K118R 332.64756   62.96014  100.79838    8.41443  0.0692701  0.21984171   2.7189172  0 MPO   595   167  31 1909-1999 0.54 M-v 38h Goffin     0000    (741) Botolphia          19990627
00742    9.55  0.15 K118R  84.98563  284.81281   64.22539   11.22012  0.1197343  0.18881011   3.0092104  0 MPC 36496   110  34 1913-1999 0.55 M-v 38h Goffin     0000    (742) Edisona            19990714
00743   10.2   0.15 K118R 129.66240  185.69830  229.14666    4.82731  0.0568704  0.21104251   2.7939765  0 MPO190130  1038  38 1929-2010 0.55 M-v 38h MPCLINUX   0000    (743) Eugenisis          20101112
00744   10.21  0.15 K118R 131.54081   29.98794  142.76356    7.70776  0.1208938  0.17486772   3.1671085  0 MPO 53552   540  28 1913-2003 0.54 M-v 38h Goffin     0000    (744) Aguntina           20030405
00745   10.4   0.15 K118R 294.01609   21.64426  125.74325   13.31915  0.0401521  0.16744050   3.2600859  0 MPO190130   851  31 1918-2010 0.57 M-v 38h MPCLINUX   0000    (745) Mauritia           20101108
00746   10.00  0.15 K118R 204.07768  307.34860    2.02050   17.51342  0.2399617  0.18006145   3.1059102  0 MPO 70179   463  31 1913-2004 0.53 M-v 38h Goffin     0000    (746) Marlu              20040914
00747    7.69  0.15 K118R  77.98777  275.29197  130.13814   18.16820  0.3411151  0.18975677   2.9991938  0 MPO 38158   570  51 1913-2002 0.57 M-v 38h Goffin     0000    (747) Winchester         20020713
00748    9.01  0.15 K118R 279.42441  180.22550  265.70709    2.25500  0.1874078  0.12584158   3.9438459  0 MPO200107  1078  44 1920-2011 0.62 M-v 38h MPCLINUX   0008    (748) Simeisa            20110514
00749   11.82  0.15 K118R  71.50774  128.23826  109.87061    5.38904  0.1731419  0.29336546   2.2431763  0 MPC 35055   154  27 1913-1999 0.55 M-v 38h Goffin     0000    (749) Malzovia           19990111
00750   12.13  0.15 K118R 329.78187   72.20710   69.74876    3.95114  0.1280704  0.25793389   2.4441646  0 MPO 70179   536  29 1913-2004 0.53 M-v 38h Goffin     0000    (750) Oskar              20040601
00751    8.66  0.08 K118R 238.62140  302.81473   78.89074   15.61218  0.1517483  0.24188707   2.5511008  0 MPO 97223   545  32 1913-2006 0.64 M-v 38h MPCW       0000    (751) Faina              20060206
00752   10.2   0.15 K118R 258.34164   23.46502   85.20062    5.95681  0.0747399  0.25500319   2.4628557  0 MPO190130  1052  33 1920-2010 0.52 M-v 38h MPCLINUX   0000    (752) Sulamitis          20100621
00753   10.21  0.15 K118R 207.41238  203.07114   61.42838   10.09345  0.2222583  0.27749588   2.3279038  0 MPO 70179   559  34 1907-2004 0.53 M-v 38h Goffin     0000    (753) Tiflis             20040319
00754    9.19  0.15 K118R 344.46186  300.91189  180.07195   24.56705  0.0475410  0.19104105   2.9857372  0 MPO 70179   640  42 1901-2004 0.53 M-v 38h Goffin     0000    (754) Malabar            20040918
00755    9.81  0.15 K118R  99.14829   42.59828  177.23381    3.23958  0.1451181  0.17453157   3.1711739  0 MPO150774  1266  38 1915-2009 0.53 M-v 38h MPCMEL     0000    (755) Quintilla          20090103
00756    9.6   0.15 K118R 330.31233    5.60829  208.10570   20.34997  0.1477898  0.17238387   3.1974588  0 MPO135422   627  29 1914-2007 0.58 M-v 38h MPCW       0000    (756) Lilliana           20071019
00757   10.20  0.15 K118R   8.75312   43.68272   22.55227    8.16801  0.1089452  0.26963831   2.3729121  0 MPO 70179   520  36 1908-2004 0.55 M-v 38h Goffin     0000    (757) Portlandia         20040303
00758    8.16  0.15 K118R 308.43499  315.96786  106.28992    5.60533  0.1523574  0.17308161   3.1888599  0 MPO 70179   731  60 1913-2004 0.54 M-v 38h Goffin     0000    (758) Mancunia           20040716
00759   10.5   0.15 K118R  54.29604    1.43467  318.48806   19.89959  0.2057502  0.23244270   2.6197435  0 MPO  4876   171  17 1913-2000 0.52 M-v 38h Goffin     0000    (759) Vinifera           20000410
00760    7.96  0.15 K118R 332.41771  200.75044  331.69100   12.53097  0.2307034  0.17625559   3.1504610  0 MPO202297   986  38 1914-2011 0.55 M-v 38h MPCLINUX   0000    (760) Massinga           20110404
00761   10.83  0.15 K118R 107.06727  299.56089   23.84851    2.16125  0.0656911  0.20356908   2.8619464  0 MPO 73855   662  38 1904-2004 0.54 M-v 38h Goffin     0000    (761) Brendelia          20040821
00762    8.28  0.15 K118R  32.77286  189.00132  305.79464   13.08573  0.1021000  0.17574508   3.1565592  0 MPO 33740   319  42 1913-2002 0.56 M-v 38h Goffin     0000    (762) Pulcova            20020616
00763   12.5   0.15 K118R  59.32973   88.73397  289.92525    4.08518  0.1661344  0.29394030   2.2402507  0 MPO 73855   391  22 1913-2004 0.53 M-v 38h Goffin     0000    (763) Cupido             20040923
00764    9.6   0.15 K118R  51.20731  155.18507  259.02659   10.03376  0.1003569  0.17309937   3.1886418  0 MPO190130   871  33 1902-2010 0.57 M-v 38h MPCLINUX   0000    (764) Gedania            20101111
00765   12.4   0.15 K118R  11.41996   70.85905  326.69654    5.54974  0.2842909  0.24265489   2.5457164  0 MPO 73855   604  26 1913-2004 0.53 M-v 38h Goffin     0000    (765) Mattiaca           20040613
00766   10.15  0.15 K118R 175.83608   72.35708    7.95224   10.07786  0.0939438  0.18770123   3.0210504  0 MPO 73855   438  32 1908-2004 0.53 M-v 38h Goffin     0000    (766) Moguntia           20040423
00767   10.0   0.15 K118R 288.46991  266.84126   79.70105    2.42032  0.1752554  0.17832957   3.1259868  0 MPO198779  1133  40 1915-2011 0.57 M-v 38h MPCLINUX   0000    (767) Bondia             20110314
00768   10.21  0.15 K118R 181.13928   16.48059   39.08953   16.23557  0.2080286  0.17672315   3.1449017  0 MPO147071   651  23 1930-2008 0.53 M-v 38h MPCW       0000    (768) Struveana          20080923
00769    8.9   0.15 K118R 135.91914  254.38968   38.49968    7.36992  0.1848929  0.17469680   3.1691739  0 MPO 73855   527  48 1913-2004 0.54 M-v 38h Goffin     0000    (769) Tatjana            20040917
00770   10.9   0.15 K118R 183.96960   18.05294   44.72896    4.38652  0.1504637  0.29772392   2.2212301  0 MPO190130  1080  34 1905-2010 0.56 M-v 38h MPCALB     0000    (770) Bali               20100408
00771   10.49  0.15 K118R 216.87380  227.46306  218.23120   14.94350  0.2484608  0.22843828   2.6502701  0 MPO 73855   442  31 1913-2004 0.54 M-v 38h Goffin     0000    (771) Libera             20040924
00772    8.33  0.15 K118R 184.83025  143.78701   63.88014   28.81420  0.0904027  0.18901066   3.0070814  0 MPO179644   813  33 1915-2010 0.48 M-v 38h MPCMEL     0000    (772) Tanete             20100527
